{"type":"FeatureCollection", "features": [
{"type":"Feature","geometry":{"type":"MultiPolygon","coordinates":[[[[129.7832,31.7996],[129.7536,31.7438],[129.7166,31.7304],[129.6594,31.6419],[129.7293,31.6442],[129.7761,31.7295],[129.7832,31.7996]]],[[[131.6598,32.4768],[131.7365,32.4917],[131.6821,32.5351],[131.7088,32.5859],[131.7433,32.588],[131.8006,32.6808],[131.8711,32.7268],[131.8825,32.7834],[131.9292,32.7783],[131.9966,32.8105],[131.9637,32.839],[131.9822,32.8889],[132.0255,32.9236],[131.9592,32.9445],[131.9032,32.9831],[131.9292,33.0683],[131.8632,33.0825],[131.8096,33.1276],[131.8722,33.2003],[131.8844,33.2683],[131.8222,33.244],[131.7109,33.2702],[131.6122,33.2529],[131.5104,33.2734],[131.4984,33.3407],[131.533,33.3661],[131.5962,33.3494],[131.6346,33.374],[131.6403,33.4166],[131.6974,33.4064],[131.7373,33.4846],[131.7295,33.5802],[131.6674,33.6672],[131.59,33.683],[131.521,33.6764],[131.4177,33.5817],[131.2838,33.5824],[131.2565,33.605],[131.0813,33.635],[131.0098,33.7462],[130.9929,33.8977],[130.9495,33.9382],[130.9136,33.8912],[130.8282,33.9396],[130.6844,33.9342],[130.6331,33.8825],[130.5482,33.8808],[130.4544,33.8077],[130.4677,33.7436],[130.3865,33.6772],[130.3909,33.6049],[130.3153,33.5974],[130.2903,33.5742],[130.2314,33.6188],[130.1595,33.6296],[130.1091,33.5897],[130.1564,33.5254],[130.0553,33.4952],[130.0402,33.4612],[129.9889,33.4489],[129.9412,33.4795],[129.9613,33.5128],[129.9101,33.5472],[129.8546,33.5329],[129.7873,33.4545],[129.8687,33.3974],[129.8075,33.3481],[129.7442,33.3643],[129.701,33.353],[129.5804,33.371],[129.5521,33.2258],[129.6001,33.2083],[129.7285,33.1223],[129.7465,33.0656],[129.7975,33.0773],[129.8239,33.0431],[129.8814,33.0628],[129.9456,33.0158],[129.9312,32.9289],[129.9857,32.8631],[129.8832,32.8757],[129.8418,32.8444],[129.7944,32.8749],[129.8233,32.9795],[129.7597,33.0479],[129.6816,33.0941],[129.6324,32.9791],[129.6384,32.9265],[129.6697,32.905],[129.6981,32.8395],[129.7327,32.8056],[129.771,32.814],[129.8457,32.7013],[129.783,32.6074],[129.8949,32.6627],[129.9549,32.7452],[130.0324,32.7594],[130.0938,32.7949],[130.1784,32.7929],[130.2103,32.7333],[130.1535,32.6862],[130.1295,32.6411],[130.1815,32.5923],[130.2539,32.6248],[130.2682,32.6504],[130.3417,32.6673],[130.3758,32.7479],[130.3722,32.7934],[130.3394,32.8566],[130.2436,32.8753],[130.1536,32.8425],[130.1053,32.8759],[130.1885,32.9153],[130.2223,32.9752],[130.1319,33.102],[130.2193,33.1595],[130.3648,33.1403],[130.4222,33.0826],[130.4331,32.9417],[130.5161,32.8685],[130.593,32.8159],[130.613,32.7812],[130.5765,32.6984],[130.4753,32.647],[130.478,32.622],[130.6414,32.6483],[130.6413,32.6075],[130.5701,32.5546],[130.5906,32.5185],[130.562,32.4271],[130.4771,32.349],[130.431,32.2571],[130.3587,32.1907],[130.3319,32.1286],[130.2787,32.1005],[130.2483,32.1337],[130.1799,32.0935],[130.204,32.0483],[130.173,32.0174],[130.2204,31.9296],[130.2147,31.8856],[130.1714,31.7901],[130.1841,31.7587],[130.2593,31.7209],[130.3362,31.6262],[130.3345,31.5624],[130.2933,31.4447],[130.2283,31.3813],[130.193,31.3152],[130.2222,31.2463],[130.2974,31.2537],[130.4511,31.2494],[130.4948,31.2272],[130.5217,31.1687],[130.6398,31.1865],[130.662,31.2586],[130.5735,31.3146],[130.5205,31.4324],[130.5291,31.5133],[130.613,31.6824],[130.686,31.7255],[130.7764,31.7103],[130.8045,31.6872],[130.799,31.6117],[130.7586,31.5638],[130.7192,31.5707],[130.7117,31.6144],[130.6379,31.6226],[130.5909,31.586],[130.6369,31.5552],[130.6956,31.5458],[130.7034,31.4593],[130.7473,31.4355],[130.7953,31.3444],[130.7804,31.2425],[130.7427,31.1213],[130.6633,31.0695],[130.6779,31.005],[130.7254,31.047],[130.7924,31.0778],[130.924,31.113],[130.98,31.156],[131.0082,31.2211],[131.0603,31.2253],[131.104,31.3288],[131.0136,31.3631],[131.0718,31.4496],[131.1506,31.4713],[131.2127,31.4547],[131.2659,31.3812],[131.3455,31.395],[131.3638,31.4197],[131.3853,31.5269],[131.4115,31.5861],[131.4553,31.6209],[131.4505,31.6511],[131.4753,31.7622],[131.4473,31.8769],[131.5305,32.1074],[131.5925,32.3037],[131.6335,32.3955],[131.6891,32.4217],[131.6598,32.4768]]],[[[134.6898,33.8281],[134.6624,33.8759],[134.7029,33.9062],[134.696,33.9519],[134.637,34.0107],[134.5998,34.0095],[134.6052,34.1108],[134.6283,34.1779],[134.5942,34.2321],[134.4398,34.2083],[134.3967,34.2495],[134.3577,34.2464],[134.2578,34.2942],[134.2713,34.3231],[134.2168,34.355],[134.1663,34.3249],[134.153,34.3857],[134.0813,34.3477],[134.0012,34.3522],[133.9465,34.3762],[133.8997,34.3642],[133.8742,34.3283],[133.782,34.2883],[133.6726,34.2231],[133.6411,34.1846],[133.6481,34.1247],[133.6209,34.0456],[133.5486,33.9809],[133.511,33.9652],[133.4148,33.9857],[133.3226,33.9906],[133.2437,33.9563],[133.127,33.9333],[133.0866,33.9493],[133.0318,34.0527],[132.9424,34.1413],[132.9191,34.0684],[132.8624,34.0559],[132.7699,33.9963],[132.7549,33.9103],[132.7124,33.9045],[132.6901,33.8139],[132.6971,33.7567],[132.6766,33.7156],[132.6017,33.6604],[132.5006,33.625],[132.4124,33.535],[132.1998,33.455],[132.0943,33.4085],[132.0296,33.3652],[132.1307,33.3636],[132.1797,33.407],[132.3078,33.4643],[132.3811,33.4661],[132.4081,33.4166],[132.3906,33.375],[132.4201,33.3044],[132.4868,33.3161],[132.4846,33.2765],[132.5368,33.2426],[132.5051,33.1812],[132.4612,33.1914],[132.4354,33.1558],[132.4876,33.1255],[132.4518,33.0529],[132.5015,32.9932],[132.4723,32.9337],[132.6184,32.9069],[132.7092,32.9094],[132.6234,32.7995],[132.6646,32.7789],[132.7114,32.7895],[132.7576,32.7524],[132.8122,32.7403],[132.8584,32.7696],[132.9151,32.778],[132.9568,32.7586],[132.9611,32.8641],[133.0025,32.8693],[132.9944,32.949],[133.0183,33.024],[133.0971,33.0481],[133.1901,33.1633],[133.2533,33.2191],[133.2708,33.2595],[133.252,33.2947],[133.2694,33.3469],[133.3123,33.3756],[133.4148,33.3931],[133.4551,33.4147],[133.4659,33.4543],[133.6077,33.5158],[133.7394,33.5375],[133.7631,33.5198],[133.9252,33.4937],[133.9688,33.4357],[134.0255,33.4154],[134.108,33.3149],[134.1903,33.2483],[134.2145,33.3766],[134.2732,33.508],[134.3886,33.6236],[134.404,33.6545],[134.4573,33.6709],[134.5707,33.7364],[134.5794,33.7642],[134.6519,33.7864],[134.6898,33.8281]]],[[[133.1213,36.1098],[133.0813,36.0801],[133.1232,36.0629],[133.1213,36.1098]]],[[[133.0906,36.1179],[133.0933,36.1098],[133.1136,36.1135],[133.0933,36.1234],[133.0906,36.1179]]],[[[133.0742,36.1279],[133.0387,36.1308],[132.9494,36.062],[132.9815,36.0399],[133.0558,36.0618],[133.0742,36.1279]]],[[[133.4222,34.445],[133.4701,34.424],[133.5689,34.4599],[133.7,34.5259],[133.8218,34.4621],[133.9363,34.4512],[133.9832,34.5286],[134.0837,34.5815],[134.1773,34.6144],[134.2478,34.7182],[134.3267,34.7043],[134.3814,34.7398],[134.4314,34.7305],[134.4732,34.7768],[134.5191,34.7597],[134.6963,34.7762],[134.7444,34.7665],[134.9603,34.6436],[135.0458,34.625],[135.2109,34.6552],[135.2423,34.6508],[135.2869,34.7054],[135.3413,34.7085],[135.4036,34.6589],[135.4144,34.5581],[135.3726,34.4845],[135.3197,34.4288],[135.209,34.3423],[135.105,34.3181],[135.061,34.2673],[135.1354,34.2277],[135.187,34.1359],[135.1306,34.1224],[135.0945,34.0676],[135.1628,34.0397],[135.1532,34.0098],[135.0757,33.9775],[135.0655,33.8856],[135.1528,33.8759],[135.1965,33.8148],[135.3121,33.7655],[135.3916,33.7136],[135.3277,33.6712],[135.3807,33.6371],[135.3873,33.5941],[135.4448,33.5508],[135.6375,33.4946],[135.7656,33.4815],[135.8848,33.529],[135.9599,33.5931],[135.9807,33.653],[136.0693,33.847],[136.1047,33.8914],[136.1989,33.9209],[136.2276,33.9617],[136.2732,33.9714],[136.2798,34.0173],[136.2438,34.0642],[136.3135,34.095],[136.299,34.1543],[136.3367,34.184],[136.4165,34.2043],[136.523,34.2731],[136.5925,34.2626],[136.6548,34.286],[136.7734,34.3078],[136.8464,34.3076],[136.9002,34.2825],[136.8753,34.3693],[136.9168,34.3762],[136.916,34.434],[136.8523,34.4855],[136.7523,34.5133],[136.633,34.5911],[136.5681,34.5964],[136.5195,34.6809],[136.5349,34.7657],[136.6161,34.8535],[136.6483,34.9116],[136.6592,34.984],[136.7256,35.0272],[136.7785,35.0204],[136.8799,35.0438],[136.8235,34.9549],[136.8277,34.8719],[136.8647,34.8215],[136.856,34.7398],[136.9454,34.6985],[136.9627,34.735],[136.9156,34.776],[136.9385,34.861],[137.0182,34.7833],[137.1715,34.7841],[137.2228,34.8163],[137.2979,34.7972],[137.3243,34.7668],[137.3093,34.7257],[137.121,34.6377],[137.0728,34.6646],[137.0161,34.5788],[137.1407,34.5893],[137.4276,34.6677],[137.547,34.6773],[137.6835,34.6708],[137.7922,34.6394],[137.8928,34.6677],[138.0472,34.6546],[138.1902,34.6012],[138.216,34.7123],[138.2932,34.7658],[138.3408,34.8265],[138.3283,34.8553],[138.3671,34.9173],[138.5143,34.9802],[138.4979,35.0326],[138.5541,35.0961],[138.6962,35.139],[138.8033,35.1219],[138.9076,35.0307],[138.7861,35.0264],[138.7619,34.9799],[138.7785,34.922],[138.7538,34.8795],[138.7481,34.8132],[138.7743,34.7513],[138.744,34.7289],[138.7714,34.6473],[138.8353,34.5959],[138.9408,34.6611],[138.9824,34.6445],[138.9988,34.7333],[139.043,34.7676],[139.0884,34.8423],[139.1409,34.8706],[139.1307,34.9652],[139.0865,34.9973],[139.0759,35.0532],[139.0885,35.1101],[139.1424,35.184],[139.146,35.2352],[139.2334,35.2853],[139.4149,35.3188],[139.5266,35.302],[139.6606,35.1782],[139.728,35.2071],[139.7342,35.2652],[139.6484,35.2979],[139.6572,35.377],[139.6869,35.4007],[139.6669,35.4679],[139.7141,35.4647],[139.7786,35.5019],[139.7991,35.54],[139.7848,35.5805],[139.8068,35.6382],[139.8972,35.6144],[139.9504,35.6726],[140.009,35.6598],[140.0796,35.6036],[140.0719,35.5429],[140.0059,35.4734],[139.9001,35.4231],[139.9079,35.3787],[139.8448,35.3762],[139.8242,35.3284],[139.8652,35.2241],[139.8246,35.1991],[139.8474,35.0693],[139.8677,35.0133],[139.7788,34.9541],[139.8431,34.9],[139.9264,34.9074],[139.9621,34.9409],[139.991,35.0205],[140.1008,35.0758],[140.1346,35.1226],[140.2374,35.1124],[140.3212,35.1304],[140.3489,35.1805],[140.3942,35.1966],[140.4131,35.3012],[140.3859,35.381],[140.4232,35.4906],[140.4835,35.566],[140.5962,35.6521],[140.6611,35.6886],[140.7208,35.6825],[140.8283,35.714],[140.8416,35.7424],[140.7893,35.8087],[140.646,36.0133],[140.5784,36.161],[140.5641,36.2831],[140.6169,36.3378],[140.6101,36.4339],[140.6235,36.5061],[140.6939,36.618],[140.7419,36.7685],[140.7931,36.8376],[140.8044,36.886],[140.9258,36.9389],[140.9603,36.9662],[141.0078,37.1339],[141.0078,37.2268],[141.0418,37.3771],[141.0222,37.727],[140.9933,37.7998],[140.9334,37.8892],[140.9198,37.9652],[140.9258,38.0494],[140.9668,38.1705],[141.0487,38.3095],[141.0978,38.3715],[141.1809,38.3712],[141.2295,38.3941],[141.3332,38.409],[141.4578,38.3309],[141.47,38.2961],[141.5428,38.3026],[141.5252,38.3599],[141.4776,38.4016],[141.4714,38.4357],[141.5476,38.5186],[141.4671,38.5695],[141.5322,38.6384],[141.4631,38.6614],[141.5726,38.7187],[141.5305,38.7808],[141.5894,38.8261],[141.5886,38.8822],[141.6367,38.8911],[141.6384,38.9854],[141.7302,38.9512],[141.7282,39.0217],[141.8065,39.0295],[141.8718,39.0629],[141.9089,39.1098],[141.8952,39.1594],[141.9053,39.3305],[141.9534,39.362],[141.9709,39.4433],[142.0693,39.5405],[142.0361,39.6116],[141.9783,39.6479],[142.0088,39.7528],[141.9719,39.883],[141.9422,39.9245],[141.9496,39.9966],[141.855,40.055],[141.8376,40.0946],[141.8772,40.1393],[141.8133,40.1836],[141.842,40.2258],[141.7438,40.3839],[141.6909,40.4423],[141.5756,40.5423],[141.5197,40.538],[141.4704,40.5934],[141.4374,40.6701],[141.4056,40.8168],[141.3863,41.0304],[141.3908,41.161],[141.4238,41.3127],[141.4575,41.3775],[141.2761,41.3532],[141.195,41.3872],[141.1078,41.4639],[140.9781,41.4977],[140.9071,41.5008],[140.837,41.4182],[140.7656,41.196],[140.7658,41.145],[140.7982,41.1286],[140.8627,41.1641],[140.9463,41.1733],[140.9776,41.1965],[141.0581,41.1831],[141.2059,41.2647],[141.2705,41.1852],[141.2364,41.0157],[141.1852,40.9112],[141.1113,40.8726],[141.0681,40.9108],[140.9751,40.9378],[140.9487,40.9907],[140.8823,41.0078],[140.8536,40.9449],[140.8707,40.9151],[140.7992,40.8391],[140.7031,40.8533],[140.673,40.8956],[140.6315,41.0931],[140.6427,41.1714],[140.5939,41.2202],[140.5486,41.2262],[140.4837,41.1835],[140.3915,41.2404],[140.3328,41.2372],[140.3328,41.1913],[140.3002,41.1113],[140.3248,41.0275],[140.2966,40.8738],[140.2708,40.8124],[140.1076,40.7441],[140.046,40.7678],[139.9982,40.7421],[139.9595,40.6777],[139.8604,40.6088],[139.9152,40.5862],[139.9428,40.5446],[139.9461,40.4189],[140.0243,40.355],[140.0112,40.2355],[139.978,40.1255],[139.9042,40.0177],[139.8221,39.9611],[139.6977,39.9886],[139.7087,39.9243],[139.7601,39.8581],[139.8438,39.8618],[139.8775,39.8928],[139.9665,39.8801],[140.0276,39.8245],[140.0593,39.7275],[140.0486,39.5047],[139.9953,39.3273],[139.9318,39.2871],[139.9036,39.2249],[139.8919,39.1332],[139.8153,38.9411],[139.7738,38.8171],[139.7162,38.7457],[139.5992,38.6483],[139.53,38.508],[139.4927,38.4542],[139.4622,38.375],[139.4324,38.1691],[139.4081,38.1319],[139.3045,38.0419],[139.2159,37.9899],[139.0599,37.9459],[138.8577,37.8278],[138.8094,37.7608],[138.7656,37.6347],[138.7183,37.5648],[138.6597,37.5244],[138.578,37.4029],[138.5506,37.3779],[138.4375,37.322],[138.3251,37.231],[138.2449,37.1838],[138.1644,37.1617],[138.0975,37.1711],[138.0534,37.1301],[137.8967,37.0575],[137.6833,36.988],[137.4993,36.9557],[137.4271,36.922],[137.3836,36.8001],[137.3333,36.7627],[137.157,36.7608],[137.0807,36.7901],[137.0055,36.8359],[136.9877,36.871],[137.0544,36.9668],[137.054,37.0798],[136.9632,37.0517],[136.9336,37.0798],[136.8747,37.0696],[136.8926,37.1733],[136.9304,37.2216],[137.0142,37.1849],[137.0707,37.2186],[137.1087,37.2835],[137.1656,37.3008],[137.2302,37.2921],[137.2675,37.3551],[137.2374,37.3799],[137.2536,37.4291],[137.3512,37.4457],[137.341,37.5171],[137.2957,37.5315],[137.1138,37.4877],[136.9348,37.3995],[136.8422,37.3995],[136.7491,37.3579],[136.7215,37.3253],[136.7332,37.285],[136.6904,37.215],[136.6703,37.15],[136.7267,37.1266],[136.7184,37.0763],[136.7676,36.981],[136.7504,36.9257],[136.7606,36.8706],[136.6897,36.7308],[136.64,36.6626],[136.4302,36.4325],[136.3468,36.3658],[136.1348,36.2246],[136.0436,36.1108],[136.0001,36.0242],[135.9573,35.9731],[135.9944,35.9359],[135.9935,35.8851],[136.0705,35.8247],[136.0995,35.7757],[136.0691,35.6619],[136.0197,35.7653],[135.956,35.7283],[135.9817,35.6436],[135.9194,35.6082],[135.816,35.6309],[135.8547,35.579],[135.7061,35.5621],[135.7244,35.4907],[135.6451,35.4802],[135.6248,35.5323],[135.5583,35.4918],[135.479,35.5225],[135.4524,35.5718],[135.3613,35.5542],[135.3525,35.487],[135.2387,35.542],[135.262,35.5575],[135.2424,35.6226],[135.304,35.6889],[135.2268,35.7723],[135.0841,35.739],[135.029,35.6929],[134.9879,35.6898],[134.927,35.6412],[134.7983,35.6656],[134.5902,35.6594],[134.537,35.6722],[134.4662,35.6376],[134.2939,35.5859],[134.2378,35.5467],[134.0348,35.5194],[134.0084,35.537],[133.9115,35.5146],[133.7311,35.5029],[133.5802,35.5336],[133.4412,35.491],[133.4174,35.4565],[133.3296,35.4655],[133.2647,35.4962],[133.2393,35.5636],[133.1565,35.5626],[133.1054,35.5975],[132.9697,35.517],[132.8649,35.511],[132.6354,35.441],[132.6708,35.3995],[132.6714,35.3551],[132.6387,35.2946],[132.5319,35.2577],[132.4081,35.1751],[132.3799,35.125],[132.3168,35.0623],[132.2163,35.0136],[132.0633,34.9075],[131.9973,34.8372],[131.8738,34.7592],[131.8584,34.7145],[131.7904,34.6861],[131.6564,34.6536],[131.5969,34.6596],[131.5208,34.5519],[131.4548,34.5191],[131.4133,34.4539],[131.4143,34.424],[131.3347,34.4161],[131.3231,34.393],[131.2362,34.3823],[131.0747,34.4248],[131.0336,34.3818],[130.9274,34.3489],[130.8999,34.355],[130.8716,34.2792],[130.9234,34.1838],[130.8616,34.1127],[130.9126,34.0533],[130.8994,33.9499],[130.9321,33.9454],[131.0356,34.048],[131.1032,34.0302],[131.166,33.9771],[131.2722,33.9268],[131.3557,33.9894],[131.4496,33.9822],[131.4829,34.0321],[131.5676,33.9863],[131.5851,34.0267],[131.6449,34.0289],[131.7415,34.0562],[131.8239,34.0202],[131.9419,33.9509],[131.9723,33.9168],[132.0578,33.8953],[132.1133,33.8449],[132.1599,33.8573],[132.1338,33.9134],[132.1426,33.9464],[132.2132,33.9897],[132.2019,34.1086],[132.2389,34.1426],[132.2225,34.239],[132.3123,34.327],[132.3835,34.3657],[132.4416,34.35],[132.4968,34.3625],[132.531,34.3352],[132.5037,34.2873],[132.5598,34.2184],[132.6563,34.1993],[132.7781,34.2427],[132.7622,34.2703],[132.8362,34.3111],[133.0183,34.3233],[133.1343,34.3823],[133.1685,34.3625],[133.0769,34.3167],[133.0933,34.2526],[133.1658,34.2923],[133.1821,34.3414],[133.2297,34.3762],[133.2473,34.4265],[133.3411,34.348],[133.4222,34.445]]],[[[143.8965,44.1581],[143.8595,44.1728],[143.8137,44.1684],[143.8965,44.1459],[143.8965,44.1581]]],[[[145.7674,43.3873],[145.676,43.382],[145.5949,43.3428],[145.4684,43.253],[145.3216,43.2763],[145.2645,43.3167],[145.3117,43.3668],[145.2644,43.4897],[145.1948,43.6207],[145.116,43.6868],[145.0747,43.7537],[145.116,43.8625],[145.1223,43.9171],[145.1696,43.9853],[145.2604,44.0694],[145.2905,44.1545],[145.3499,44.2116],[145.3731,44.2922],[145.3415,44.3455],[145.2503,44.2718],[145.2017,44.2058],[145.0485,44.1221],[144.8312,43.9422],[144.7405,43.9146],[144.5703,43.9248],[144.4304,43.9426],[144.3186,43.9912],[144.2559,44.0794],[144.2151,44.1115],[144.167,44.0254],[144.1055,44.0316],[144.1193,44.1291],[143.9992,44.134],[143.9297,44.0989],[143.7832,44.1007],[143.6804,44.1824],[143.7766,44.1893],[143.5524,44.2525],[143.4053,44.3175],[143.3514,44.381],[143.2969,44.3947],[143.2407,44.4363],[143.1184,44.4969],[142.9815,44.5865],[142.714,44.8062],[142.6307,44.8837],[142.5393,45.0185],[142.2212,45.2996],[142.0567,45.402],[141.9605,45.5102],[141.8787,45.484],[141.8753,45.4482],[141.8233,45.4226],[141.6921,45.4023],[141.6394,45.4211],[141.6492,45.341],[141.5838,45.2512],[141.5864,45.1644],[141.7219,44.9551],[141.7536,44.8854],[141.7835,44.7654],[141.7918,44.597],[141.7472,44.4242],[141.6657,44.3127],[141.6554,44.2769],[141.6702,44.0666],[141.6406,43.9379],[141.5847,43.8754],[141.5282,43.8412],[141.385,43.7913],[141.3374,43.7128],[141.3914,43.5791],[141.3625,43.5434],[141.3709,43.4971],[141.427,43.4346],[141.4401,43.3617],[141.3709,43.2507],[141.2276,43.1545],[141.1691,43.1409],[141.022,43.175],[140.9883,43.227],[140.9126,43.2042],[140.8099,43.1925],[140.6892,43.2484],[140.6209,43.3012],[140.4872,43.3724],[140.4529,43.3389],[140.3601,43.3252],[140.3294,43.2507],[140.3381,43.2105],[140.4392,43.134],[140.5271,43.0154],[140.3771,42.8938],[140.3118,42.816],[140.3032,42.7697],[140.2608,42.761],[140.2004,42.8143],[140.1359,42.7471],[140.0539,42.6942],[139.877,42.6634],[139.8328,42.5888],[139.8496,42.4693],[139.8262,42.402],[139.7676,42.311],[139.7874,42.2468],[139.8836,42.195],[139.9275,42.1389],[140.0276,42.1055],[140.145,41.9827],[140.1517,41.9138],[140.1297,41.8232],[140.083,41.8008],[140.0195,41.697],[139.9842,41.6032],[139.9837,41.5605],[140.0383,41.4426],[140.1004,41.4135],[140.209,41.4011],[140.2747,41.4824],[140.4006,41.513],[140.4432,41.5637],[140.4333,41.6447],[140.4529,41.6811],[140.6043,41.7363],[140.6416,41.8151],[140.709,41.8244],[140.7751,41.7704],[140.8743,41.7582],[140.96,41.722],[141.0433,41.7239],[141.104,41.7704],[141.19,41.7909],[141.1828,41.8183],[141.0833,41.8826],[140.9743,41.9138],[140.9085,41.9789],[140.8371,42.0236],[140.7736,42.1022],[140.7136,42.1335],[140.5488,42.1055],[140.4241,42.1923],[140.3216,42.234],[140.2918,42.2596],[140.2886,42.3502],[140.3255,42.4328],[140.3809,42.5051],[140.4575,42.5643],[140.5256,42.5806],[140.6863,42.5792],[140.7337,42.5642],[140.9014,42.4208],[140.9121,42.3806],[141.0168,42.3161],[141.0916,42.3918],[141.2625,42.4682],[141.4277,42.5644],[141.5496,42.6011],[141.7261,42.6172],[141.8171,42.5996],[141.926,42.5586],[141.981,42.5102],[142.0626,42.4707],[142.1678,42.4599],[142.281,42.3665],[142.46,42.2713],[142.5464,42.2506],[142.7577,42.1584],[142.9597,42.1054],[143.1152,42.028],[143.1824,41.9616],[143.2529,41.9419],[143.3035,42.0258],[143.3379,42.1502],[143.3249,42.2297],[143.349,42.3192],[143.4481,42.455],[143.5752,42.6033],[143.6388,42.6611],[143.7903,42.7573],[143.8864,42.8442],[144.042,42.9266],[144.1831,42.9764],[144.323,43.0026],[144.3906,42.9564],[144.4959,42.9333],[144.5991,42.9491],[144.742,42.9242],[144.7576,43.0188],[144.8402,43.0401],[144.8688,42.9885],[145.0002,42.9862],[145.0513,43.0331],[145.0993,43.0446],[145.1255,43.1201],[145.2311,43.1411],[145.3025,43.1735],[145.4524,43.1839],[145.5171,43.175],[145.5798,43.265],[145.6292,43.3098],[145.6841,43.3102],[145.7601,43.337],[145.7674,43.3873]]],[[[123.8147,24.3917],[123.7699,24.4184],[123.7481,24.3296],[123.6838,24.3235],[123.6834,24.2853],[123.8731,24.2582],[123.936,24.3415],[123.9105,24.3795],[123.8147,24.3917]]],[[[123.0026,24.4743],[122.9446,24.4663],[122.9475,24.4395],[122.9984,24.4395],[123.0026,24.4743]]],[[[124.3291,24.5836],[124.3006,24.5699],[124.2684,24.5104],[124.2119,24.447],[124.1565,24.4416],[124.1162,24.4675],[124.0886,24.4219],[124.1431,24.3849],[124.1403,24.342],[124.2119,24.3371],[124.2419,24.3637],[124.2739,24.4879],[124.3291,24.5836]]],[[[141.3578,24.7896],[141.2995,24.7859],[141.3026,24.7344],[141.3578,24.7896]]],[[[125.3872,24.7822],[125.3267,24.8107],[125.2748,24.8564],[125.2588,24.7334],[125.3838,24.727],[125.4448,24.7567],[125.3872,24.7822]]],[[[131.2551,25.875],[131.2121,25.829],[131.2525,25.819],[131.2551,25.875]]],[[[126.8101,26.3519],[126.7871,26.3801],[126.7236,26.386],[126.7036,26.3553],[126.7599,26.3344],[126.8101,26.3519]]],[[[142.1932,26.6461],[142.1318,26.715],[142.139,26.6625],[142.1599,26.632],[142.1932,26.6461]]],[[[128.3377,26.7969],[128.2544,26.8644],[128.2259,26.801],[128.162,26.7571],[128.1113,26.7034],[128.1111,26.674],[128.0149,26.6348],[128.0012,26.6802],[127.9646,26.6972],[127.8854,26.6961],[127.8856,26.6202],[127.9624,26.582],[127.9375,26.5321],[127.8306,26.4884],[127.8052,26.4476],[127.7313,26.4399],[127.7244,26.3854],[127.7419,26.3205],[127.7183,26.2741],[127.6359,26.1914],[127.6571,26.1218],[127.6517,26.0844],[127.7254,26.0896],[127.7969,26.1397],[127.7775,26.2333],[127.8283,26.3162],[127.9019,26.305],[127.8734,26.3648],[127.8706,26.4474],[127.9403,26.4477],[128.0559,26.5505],[128.1087,26.5452],[128.1722,26.6235],[128.2433,26.6333],[128.3377,26.7643],[128.3377,26.7969]]],[[[142.1932,27.0917],[142.1986,27.0511],[142.2346,27.05],[142.2411,27.0843],[142.1932,27.0917]]],[[[128.7007,27.4548],[128.6188,27.4156],[128.5339,27.4153],[128.5269,27.3719],[128.5745,27.3533],[128.6307,27.3757],[128.7007,27.4548]]],[[[128.9888,27.8111],[128.9655,27.8944],[128.8945,27.8913],[128.8789,27.8248],[128.8945,27.7282],[128.9295,27.6867],[128.9895,27.7075],[129.0243,27.7566],[128.9888,27.8111]]],[[[129.2966,28.1196],[129.2326,28.1707],[129.2181,28.1061],[129.2966,28.1196]]],[[[130.0303,28.3735],[129.9136,28.2971],[129.9955,28.2909],[130.0303,28.3735]]],[[[129.7075,28.4621],[129.6878,28.509],[129.5335,28.4305],[129.3996,28.3717],[129.3313,28.366],[129.2277,28.3046],[129.2088,28.2642],[129.2424,28.2143],[129.3657,28.1232],[129.3711,28.1672],[129.4679,28.2158],[129.4202,28.2499],[129.554,28.3284],[129.6193,28.4008],[129.716,28.4291],[129.7075,28.4621]]],[[[129.7149,29.6545],[129.721,29.6061],[129.7438,29.6223],[129.7459,29.661],[129.7149,29.6545]]],[[[129.8936,29.8747],[129.8328,29.8731],[129.8634,29.8246],[129.8936,29.8747]]],[[[130.6746,30.3746],[130.6387,30.4027],[130.499,30.468],[130.4671,30.4572],[130.4234,30.399],[130.3762,30.3944],[130.3863,30.3396],[130.4377,30.239],[130.486,30.2258],[130.5773,30.2359],[130.6471,30.2905],[130.6746,30.3746]]],[[[131.052,30.8402],[131.0063,30.7892],[130.9997,30.7457],[130.9393,30.6723],[130.9509,30.595],[130.9302,30.5409],[130.8515,30.4701],[130.8858,30.3439],[130.9778,30.4003],[130.9648,30.4563],[131.0034,30.5512],[131.0356,30.5572],[131.0576,30.6113],[131.0538,30.6619],[131.0789,30.6991],[131.052,30.8402]]],[[[130.1531,32.2038],[130.1111,32.1933],[130.1278,32.1323],[130.1673,32.1143],[130.1941,32.1764],[130.1531,32.2038]]],[[[130.41,32.5116],[130.363,32.5271],[130.2186,32.456],[130.242,32.3955],[130.3587,32.4129],[130.3928,32.3972],[130.4348,32.4927],[130.41,32.5116]]],[[[130.1605,32.5463],[130.033,32.5219],[130.0303,32.4824],[129.9944,32.4241],[129.9753,32.3554],[130.0166,32.2931],[129.9973,32.244],[130.012,32.1906],[130.1333,32.2651],[130.1577,32.3102],[130.2034,32.3389],[130.199,32.4802],[130.1605,32.5463]]],[[[128.8784,32.6739],[128.8421,32.7039],[128.8423,32.7595],[128.7792,32.7766],[128.6997,32.7438],[128.6418,32.7614],[128.6527,32.6679],[128.6004,32.6142],[128.6629,32.6015],[128.7722,32.6319],[128.8993,32.6425],[128.8784,32.6739]]],[[[139.791,33.1353],[139.7434,33.1186],[139.7876,33.0584],[139.8452,33.0468],[139.8775,33.0876],[139.791,33.1353]]],[[[129.098,32.9883],[129.1027,33.0545],[129.0486,33.0396],[129.0426,33.0002],[128.9815,32.9604],[129.0478,32.91],[129.0404,32.8627],[129.0966,32.8569],[129.0925,32.9066],[129.176,32.967],[129.1696,33.0058],[129.098,32.9883]]],[[[129.5557,33.4108],[129.4951,33.3583],[129.4427,33.3481],[129.4373,33.2967],[129.3425,33.1796],[129.376,33.1697],[129.4466,33.1985],[129.4931,33.2452],[129.5622,33.3664],[129.5557,33.4108]]],[[[132.2437,33.7933],[132.2088,33.8001],[132.2044,33.7821],[132.2363,33.7685],[132.2437,33.7933]]],[[[129.7764,33.7734],[129.7673,33.8446],[129.6867,33.8598],[129.6569,33.8155],[129.6571,33.7426],[129.7105,33.7008],[129.7764,33.7734]]],[[[132.2362,33.869],[132.3286,33.8751],[132.374,33.8417],[132.3953,33.9155],[132.3262,33.8963],[132.2536,33.9501],[132.1863,33.9212],[132.2362,33.869]]],[[[139.4871,34.0608],[139.5613,34.0581],[139.5563,34.1135],[139.4944,34.0928],[139.4871,34.0608]]],[[[132.5552,34.0714],[132.5433,34.1767],[132.4553,34.0881],[132.5552,34.0714]]],[[[132.9995,34.2084],[133.0557,34.2424],[133.03,34.2953],[132.9697,34.2526],[132.9995,34.2084]]],[[[129.3125,34.2798],[129.2802,34.3229],[129.2241,34.2934],[129.1985,34.3162],[129.1704,34.1468],[129.2161,34.0983],[129.2766,34.1291],[129.3094,34.2191],[129.3125,34.2798]]],[[[139.2704,34.396],[139.2537,34.3414],[139.2835,34.3369],[139.3025,34.3997],[139.2704,34.396]]],[[[135.0027,34.6084],[134.9381,34.5509],[134.8838,34.5295],[134.8565,34.4833],[134.799,34.4468],[134.7208,34.3298],[134.6572,34.2882],[134.7287,34.1909],[134.8001,34.2008],[134.8339,34.2266],[134.9583,34.2704],[134.8958,34.3727],[134.903,34.419],[134.9841,34.5058],[135.0301,34.5788],[135.0027,34.6084]]],[[[129.4526,34.6195],[129.4878,34.6764],[129.4182,34.6854],[129.3783,34.6449],[129.3233,34.6481],[129.3034,34.5869],[129.3049,34.5203],[129.2686,34.4331],[129.2723,34.3757],[129.3346,34.3606],[129.3682,34.3074],[129.408,34.3516],[129.3618,34.4055],[129.3795,34.4526],[129.4461,34.5148],[129.4782,34.5971],[129.4526,34.6195]]],[[[139.4182,34.7808],[139.3565,34.7972],[139.3594,34.7023],[139.4538,34.6789],[139.4567,34.7371],[139.4182,34.7808]]],[[[133.0125,36.0148],[133.0278,35.9936],[133.0667,36.0065],[133.0242,36.0256],[133.0125,36.0148]]],[[[133.367,36.2742],[133.292,36.3425],[133.2095,36.2972],[133.1878,36.2161],[133.2498,36.1683],[133.326,36.1581],[133.3792,36.2082],[133.367,36.2742]]],[[[138.4592,38.0699],[138.4439,38.1022],[138.4866,38.1813],[138.5193,38.3074],[138.4694,38.3132],[138.4286,38.2563],[138.3101,38.1681],[138.2531,38.0903],[138.2327,38.0078],[138.2479,37.9785],[138.3148,37.9975],[138.3425,37.9669],[138.2879,37.906],[138.2651,37.7983],[138.3704,37.8288],[138.4865,37.8918],[138.5752,38.0351],[138.5752,38.0743],[138.4592,38.0699]]],[[[139.5485,42.2434],[139.437,42.2072],[139.4143,42.1725],[139.4354,42.0629],[139.509,42.1008],[139.5485,42.2434]]],[[[146.1751,43.5382],[146.0794,43.5176],[146.1519,43.4628],[146.2092,43.4835],[146.1751,43.5382]]],[[[145.3115,43.5933],[145.2024,43.6138],[145.332,43.5654],[145.3115,43.5933]]],[[[146.8817,43.8592],[146.7687,43.8608],[146.6743,43.822],[146.6047,43.8086],[146.6022,43.7361],[146.6506,43.7126],[146.7835,43.7535],[146.819,43.7819],[146.9146,43.8027],[146.9421,43.8466],[146.8817,43.8592]]],[[[144.4483,43.9422],[144.449,43.942],[144.4551,43.9422],[144.4483,43.9422]]],[[[146.4692,44.4288],[146.3635,44.422],[146.2476,44.467],[146.1943,44.5065],[146.1193,44.506],[146.0198,44.3826],[145.9749,44.2923],[145.8696,44.227],[145.8596,44.1893],[145.801,44.1601],[145.7288,44.0438],[145.6616,43.9906],[145.4823,43.8944],[145.4099,43.8286],[145.4431,43.7245],[145.5723,43.7299],[145.5811,43.8337],[145.6621,43.8982],[145.7268,43.9066],[145.7917,43.9486],[145.8132,44.0065],[145.8875,44.039],[145.9314,44.1209],[146.0564,44.1943],[146.1394,44.2657],[146.2734,44.2734],[146.3259,44.2922],[146.402,44.3624],[146.5388,44.383],[146.5721,44.4499],[146.4692,44.4288]]],[[[141.3272,45.1723],[141.2683,45.2255],[141.2026,45.2491],[141.1318,45.2103],[141.1501,45.1471],[141.2354,45.1025],[141.3045,45.1202],[141.3272,45.1723]]],[[[141.0527,45.4504],[141.0066,45.4404],[140.9942,45.371],[141.0591,45.322],[141.0736,45.4247],[141.0527,45.4504]]],[[[148.7992,45.4157],[148.8562,45.4643],[148.7992,45.5181],[148.7266,45.5252],[148.6211,45.4982],[148.4684,45.3977],[148.361,45.2996],[148.3119,45.2753],[148.0696,45.2512],[148.0046,45.2812],[147.9976,45.3346],[147.9509,45.4313],[147.8716,45.3804],[147.8675,45.2683],[147.8862,45.2187],[147.7813,45.1977],[147.669,45.0936],[147.593,45.0644],[147.5417,45.0928],[147.5018,45.0788],[147.4949,45.005],[147.4538,44.9586],[147.3605,44.9011],[147.2644,44.8676],[147.2165,44.799],[147.1516,44.8345],[147.1219,44.7763],[147.2039,44.7554],[147.1966,44.7137],[147.1292,44.6471],[147.0914,44.6374],[146.9986,44.6626],[147.0378,44.599],[146.8734,44.4899],[146.876,44.4341],[146.9583,44.421],[146.9937,44.4804],[147.1133,44.5704],[147.1533,44.5591],[147.226,44.581],[147.2889,44.6606],[147.3884,44.7367],[147.4854,44.7784],[147.5554,44.8236],[147.6488,44.9211],[147.626,44.9694],[147.7008,45.008],[147.7683,44.9433],[147.832,44.9653],[147.913,44.963],[147.9903,45.0058],[148.1273,45.1311],[148.2158,45.1957],[148.3435,45.2389],[148.4382,45.2485],[148.5562,45.307],[148.645,45.3201],[148.7583,45.3127],[148.8167,45.3335],[148.844,45.371],[148.7992,45.4157]]],[[[140.87,27.2182],[140.8782,27.2326],[140.8679,27.234],[140.87,27.2182]]],[[[127.8098,26.7354],[127.7688,26.734],[127.7586,26.7129],[127.8112,26.707],[127.8098,26.7354]]],[[[127.9954,27.0917],[127.9357,27.0251],[127.9522,27.0183],[127.9932,27.0667],[127.9954,27.0917]]],[[[130.2201,30.4716],[130.1731,30.4544],[130.2125,30.4207],[130.2621,30.447],[130.2201,30.4716]]],[[[134.3674,34.5543],[134.2713,34.5407],[134.2038,34.5124],[134.2624,34.4209],[134.2991,34.4649],[134.3469,34.4308],[134.3743,34.5133],[134.3674,34.5543]]],[[[141.453,24.2224],[141.4631,24.2121],[141.4707,24.2192],[141.4602,24.2274],[141.453,24.2224]]],[[[153.973,24.2897],[153.9837,24.2829],[153.9856,24.2911],[153.9812,24.2954],[153.973,24.2897]]],[[[141.2874,25.4177],[141.2995,25.4348],[141.2748,25.4511],[141.2747,25.4271],[141.2874,25.4177]]],[[[131.2897,25.9514],[131.3096,25.9228],[131.3213,25.9477],[131.2897,25.9514]]],[[[127.2222,26.5989],[127.2088,26.582],[127.2368,26.5792],[127.2424,26.5967],[127.2222,26.5989]]],[[[128.4544,27.0475],[128.429,27.0665],[128.3963,27.0408],[128.4486,27.0207],[128.4544,27.0475]]],[[[142.1892,27.1455],[142.2018,27.1627],[142.2005,27.1833],[142.1909,27.1852],[142.1843,27.1584],[142.1892,27.1455]]],[[[142.1953,27.5991],[142.1929,27.6162],[142.1795,27.6125],[142.1953,27.5991]]],[[[142.0806,27.7169],[142.0851,27.7261],[142.0786,27.7272],[142.0806,27.7169]]],[[[128.2366,27.8665],[128.2323,27.8529],[128.2415,27.8454],[128.2434,27.8572],[128.2366,27.8665]]],[[[129.5916,29.4501],[129.6154,29.4552],[129.5982,29.4724],[129.5916,29.4501]]],[[[129.5277,29.9023],[129.5399,29.8899],[129.5545,29.8975],[129.5433,29.9081],[129.5277,29.9023]]],[[[129.9437,29.9653],[129.922,30.0047],[129.8998,29.9757],[129.9437,29.9653]]],[[[140.3076,30.4912],[140.3065,30.4736],[140.3259,30.4852],[140.3076,30.4912]]],[[[129.4282,30.8464],[129.4295,30.8409],[129.4338,30.8446],[129.4282,30.8464]]],[[[129.9463,30.8447],[129.904,30.8344],[129.9395,30.8134],[129.9463,30.8447]]],[[[140.0435,31.4431],[140.0457,31.4433],[140.0444,31.4451],[140.0435,31.4431]]],[[[140.0413,31.4442],[140.0431,31.4446],[140.0414,31.4465],[140.0413,31.4442]]],[[[139.7564,32.4523],[139.7738,32.441],[139.7571,32.4704],[139.7564,32.4523]]],[[[139.2991,33.6501],[139.2991,33.6507],[139.2962,33.6511],[139.2991,33.6501]]],[[[139.6228,33.8856],[139.5798,33.8803],[139.5942,33.8547],[139.6229,33.8568],[139.6228,33.8856]]],[[[139.3729,41.5222],[139.3403,41.5238],[139.3456,41.4934],[139.3743,41.5043],[139.3729,41.5222]]],[[[153.9662,24.3087],[153.9407,24.3115],[153.9535,24.2925],[153.9662,24.3087]]],[[[125.2029,24.8463],[125.1636,24.8546],[125.1506,24.8043],[125.2053,24.805],[125.2029,24.8463]]],[[[127.3696,26.2146],[127.3426,26.1857],[127.3611,26.164],[127.3696,26.2146]]],[[[142.1052,27.727],[142.1072,27.7167],[142.1117,27.7259],[142.1052,27.727]]],[[[129.9334,31.8678],[129.902,31.8481],[129.8645,31.8756],[129.8395,31.8537],[129.876,31.8113],[129.9222,31.8198],[129.9334,31.8678]]],[[[130.2439,32.3018],[130.2171,32.2869],[130.2428,32.2631],[130.2664,32.2871],[130.2439,32.3018]]],[[[130.4468,32.5968],[130.3988,32.5932],[130.4092,32.5493],[130.4458,32.5526],[130.4468,32.5968]]],[[[132.562,32.7421],[132.5399,32.7338],[132.5432,32.7084],[132.5708,32.7173],[132.562,32.7421]]],[[[128.8998,32.8183],[128.8373,32.8338],[128.8352,32.7877],[128.8823,32.7653],[128.8998,32.8183]]],[[[128.9531,32.8742],[128.9377,32.8608],[128.8958,32.8564],[128.924,32.8297],[128.958,32.8415],[128.9531,32.8742]]],[[[129.0278,32.8998],[128.9924,32.9294],[128.968,32.8737],[129.0282,32.8557],[129.0278,32.8998]]],[[[129.1355,33.2999],[129.0762,33.2688],[129.1273,33.2475],[129.1355,33.2999]]],[[[129.5559,33.494],[129.5418,33.5073],[129.5067,33.4831],[129.5545,33.4735],[129.5559,33.494]]],[[[132.6414,34.0141],[132.5869,33.9697],[132.6345,33.9648],[132.6414,34.0141]]],[[[133.0935,34.1743],[133.0262,34.1762],[133.0452,34.1184],[133.0935,34.1743]]],[[[132.7385,34.197],[132.709,34.2033],[132.689,34.1899],[132.7236,34.1708],[132.7385,34.197]]],[[[132.9212,34.2773],[132.8464,34.2402],[132.8631,34.2085],[132.9168,34.2219],[132.9212,34.2773]]],[[[132.3384,34.3044],[132.2988,34.2922],[132.2673,34.2536],[132.2959,34.2432],[132.345,34.282],[132.3384,34.3044]]],[[[133.7157,34.3961],[133.6919,34.3784],[133.7031,34.3518],[133.7258,34.3714],[133.7157,34.3961]]],[[[135.2052,34.4305],[135.2244,34.4163],[135.2571,34.4358],[135.241,34.4546],[135.2052,34.4305]]],[[[134.049,34.4744],[134.084,34.4598],[134.1029,34.4809],[134.0834,34.5007],[134.049,34.4744]]],[[[136.892,34.4967],[136.8726,34.4911],[136.8832,34.4754],[136.9025,34.4861],[136.892,34.4967]]],[[[136.8902,34.5312],[136.8491,34.515],[136.874,34.5134],[136.8902,34.5312]]],[[[136.7981,34.8764],[136.8077,34.8392],[136.826,34.8491],[136.7981,34.8764]]],[[[137.0481,37.1523],[136.9736,37.1533],[136.9155,37.1278],[136.9437,37.0974],[137.0387,37.1201],[137.0481,37.1523]]],[[[123.6063,25.739],[123.6028,25.7455],[123.6004,25.7394],[123.6063,25.739]]],[[[123.5453,25.7618],[123.5374,25.7733],[123.5139,25.7691],[123.5115,25.7581],[123.5453,25.7618]]],[[[123.673,25.9287],[123.6717,25.9298],[123.672,25.9275],[123.673,25.9287]]],[[[131.861,37.244],[131.8601,37.2424],[131.8617,37.2416],[131.8625,37.2431],[131.861,37.244]]]]},"properties":null}
]}
