{"type":"FeatureCollection", "features": [
{"type":"Feature","geometry":{"type":"LineString","coordinates":[[130.3446,32.1618],[130.4244,32.1134],[130.5898,32.1635],[130.7124,32.0909]]},"properties":null},
{"type":"Feature","geometry":{"type":"LineString","coordinates":[[130.7124,32.0909],[130.7001,32.067],[130.7839,31.9548],[130.8734,31.8876],[130.897,31.7843],[130.9655,31.7607],[131.0024,31.7235],[131.0359,31.6454],[131.156,31.6127],[131.1918,31.5747],[131.1814,31.5118],[131.1506,31.4713]]},"properties":null},
{"type":"Feature","geometry":{"type":"LineString","coordinates":[[131.8723,32.7316],[131.8392,32.7341],[131.8192,32.7984],[131.7349,32.8204],[131.6957,32.7658],[131.5903,32.7598],[131.5397,32.743],[131.4642,32.8179],[131.3566,32.8046],[131.3239,32.8223]]},"properties":null},
{"type":"Feature","geometry":{"type":"LineString","coordinates":[[131.3239,32.8223],[131.2621,32.8663],[131.2347,32.9752],[131.2014,33.042],[131.1249,33.1424],[131.0594,33.1806],[130.9776,33.1607],[131.0097,33.0795],[130.9909,33.0331],[130.9512,33.0323],[130.8347,33.0809]]},"properties":null},
{"type":"Feature","geometry":{"type":"LineString","coordinates":[[130.8347,33.0809],[130.856,33.143],[130.8263,33.233],[130.8413,33.352],[130.8858,33.4254],[130.9505,33.4852],[131.0042,33.5001],[131.1495,33.4957],[131.1831,33.5454],[131.2009,33.6127]]},"properties":null},
{"type":"Feature","geometry":{"type":"LineString","coordinates":[[130.8347,33.0809],[130.7286,33.1345],[130.6852,33.14],[130.6359,33.1043],[130.5799,33.0984],[130.5218,33.0616],[130.484,32.9947],[130.4292,32.9805]]},"properties":null},
{"type":"Feature","geometry":{"type":"LineString","coordinates":[[130.3494,33.142],[130.3468,33.1799],[130.3812,33.2364],[130.4534,33.2647],[130.484,33.3148],[130.5319,33.3379],[130.5193,33.4209],[130.4262,33.387],[130.259,33.468],[130.0363,33.4576]]},"properties":null},
{"type":"Feature","geometry":{"type":"LineString","coordinates":[[130.2041,32.9436],[130.1034,32.96],[130.0322,32.9875],[129.9252,33.0688],[129.9193,33.1443],[129.8292,33.1751],[129.7582,33.2791],[129.8145,33.3312]]},"properties":null},
{"type":"Feature","geometry":{"type":"LineString","coordinates":[[131.3239,32.8223],[131.2423,32.7933],[131.2104,32.7347],[131.1254,32.646],[131.0857,32.5713],[131.0225,32.5341],[131,32.4601],[131.0542,32.3808],[131.0871,32.2996],[131.0503,32.2462],[131.0759,32.1556],[131.0056,32.1658],[130.9369,32.115],[130.8837,32.1192],[130.8108,32.0908],[130.7124,32.0909]]},"properties":null},
{"type":"Feature","geometry":{"type":"LineString","coordinates":[[134.2957,33.5303],[134.1901,33.5515],[134.1548,33.6092],[134.1587,33.6562],[134.0602,33.6793],[134.0523,33.7484],[134.0175,33.8108],[133.9547,33.8124],[133.885,33.7901],[133.8132,33.8234],[133.7433,33.8266],[133.6479,33.8557]]},"properties":null},
{"type":"Feature","geometry":{"type":"LineString","coordinates":[[133.6479,33.8557],[133.6668,33.9013],[133.6606,33.9979]]},"properties":null},
{"type":"Feature","geometry":{"type":"LineString","coordinates":[[133.6606,33.9979],[133.8282,34.0929],[133.8999,34.1007],[133.9654,34.072],[134.0912,34.1064],[134.1367,34.1437],[134.2197,34.1626],[134.4197,34.1615],[134.4424,34.2083]]},"properties":null},
{"type":"Feature","geometry":{"type":"LineString","coordinates":[[133.6606,33.9979],[133.5919,34.0238]]},"properties":null},
{"type":"Feature","geometry":{"type":"LineString","coordinates":[[133.6479,33.8557],[133.5603,33.8531],[133.4685,33.8193],[133.2684,33.8048],[133.1788,33.7716],[133.1168,33.6723],[133.0662,33.618],[133.0354,33.5117],[132.9503,33.4497],[132.8202,33.4502],[132.8159,33.389],[132.8781,33.3264],[132.8767,33.3027],[132.7736,33.239],[132.7586,33.1882],[132.6733,33.1229],[132.6177,33.1253],[132.6717,33.0011],[132.6694,32.9423],[132.6399,32.9089]]},"properties":null},
{"type":"Feature","geometry":{"type":"LineString","coordinates":[[133.2575,35.5362],[133.2097,35.5242],[133.2499,35.4561],[133.317,35.4236],[133.3039,35.3893],[133.2998,35.2824],[133.2716,35.2558],[133.1644,35.2059],[133.1723,35.1578],[133.1279,35.0673]]},"properties":null},
{"type":"Feature","geometry":{"type":"LineString","coordinates":[[133.1279,35.0673],[133.0544,35.0634],[132.994,35.0805],[132.8392,35.0665],[132.7471,34.9622],[132.6425,34.8947],[132.6679,34.8382],[132.5091,34.7895],[132.4241,34.7997],[132.2765,34.7685],[132.2479,34.7829],[132.1533,34.7165],[132.1474,34.6592],[132.1098,34.5776],[132.0413,34.4952],[132.0504,34.4578]]},"properties":null},
{"type":"Feature","geometry":{"type":"LineString","coordinates":[[132.0504,34.4578],[131.9916,34.4134],[132.002,34.3639],[131.9468,34.306],[131.8963,34.3177],[131.8454,34.3031],[131.7714,34.3143],[131.7514,34.3735],[131.7685,34.4161],[131.6965,34.429],[131.6671,34.4961],[131.7034,34.571],[131.6756,34.6721]]},"properties":null},
{"type":"Feature","geometry":{"type":"LineString","coordinates":[[132.0504,34.4578],[132.0709,34.3595],[132.144,34.2284],[132.2404,34.1898]]},"properties":null},
{"type":"Feature","geometry":{"type":"LineString","coordinates":[[134.3656,35.6],[134.4168,35.5442],[134.4444,35.4387],[134.5021,35.3324],[134.5048,35.2582],[134.4365,35.2175],[134.3957,35.2292]]},"properties":null},
{"type":"Feature","geometry":{"type":"LineString","coordinates":[[134.3957,35.2292],[134.3254,35.1925],[134.2473,35.1858],[134.1746,35.1616],[134.1316,35.2428],[134.0812,35.2792],[134.0066,35.2879],[133.9869,35.325],[133.9291,35.3194],[133.8111,35.2422],[133.7352,35.2953],[133.6079,35.3223],[133.5799,35.3152],[133.5042,35.1812],[133.3972,35.1566],[133.3601,35.0953],[133.2643,35.0506]]},"properties":null},
{"type":"Feature","geometry":{"type":"LineString","coordinates":[[133.2643,35.0506],[133.1279,35.0673]]},"properties":null},
{"type":"Feature","geometry":{"type":"LineString","coordinates":[[134.8633,35.6583],[134.8677,35.5707],[134.9109,35.5128],[134.9536,35.4969],[135.0438,35.5027],[135.0505,35.4164],[135.0034,35.3657],[134.9302,35.3796],[134.9209,35.3182],[134.9551,35.2858],[135.0778,35.2336],[135.1593,35.2396],[135.2013,35.1701],[135.3439,35.1292],[135.4009,35.0768],[135.3386,35.0302],[135.3633,34.9975]]},"properties":null},
{"type":"Feature","geometry":{"type":"LineString","coordinates":[[135.3633,34.9975],[135.3668,34.9534],[135.4398,34.9037],[135.4332,34.7938],[135.4485,34.7292],[135.4129,34.6921]]},"properties":null},
{"type":"Feature","geometry":{"type":"LineString","coordinates":[[134.3046,34.7091],[134.314,34.7612],[134.2597,34.8213],[134.2636,35.001],[134.3133,35.041],[134.3941,35.1407],[134.3957,35.2292]]},"properties":null},
{"type":"Feature","geometry":{"type":"LineString","coordinates":[[135.4788,35.5437],[135.4418,35.5177],[135.4531,35.4391],[135.5188,35.3734],[135.6883,35.3304],[135.7429,35.3376]]},"properties":null},
{"type":"Feature","geometry":{"type":"LineString","coordinates":[[135.7429,35.3376],[135.827,35.2633],[135.8188,35.2124],[135.8366,35.1208],[135.8147,35.0056],[135.8735,34.8681],[135.9158,34.867],[135.9976,34.8028],[136.0031,34.7737]]},"properties":null},
{"type":"Feature","geometry":{"type":"LineString","coordinates":[[136.0031,34.7737],[136.0365,34.7153]]},"properties":null},
{"type":"Feature","geometry":{"type":"LineString","coordinates":[[136.0365,34.7153],[136.0088,34.6959],[135.932,34.7239],[135.8323,34.6991],[135.7393,34.7338],[135.7063,34.7595]]},"properties":null},
{"type":"Feature","geometry":{"type":"LineString","coordinates":[[135.7063,34.7595],[135.7084,34.8112],[135.6464,34.8992],[135.598,34.9197],[135.5382,34.9098],[135.4583,34.9747],[135.3633,34.9975]]},"properties":null},
{"type":"Feature","geometry":{"type":"LineString","coordinates":[[136.2267,36.2856],[136.2866,36.2424],[136.3052,36.1841],[136.4169,36.1405],[136.533,36.1399],[136.623,36.0745],[136.7209,36.0748]]},"properties":null},
{"type":"Feature","geometry":{"type":"LineString","coordinates":[[136.7209,36.0748],[136.6986,35.9435],[136.779,35.887],[136.8031,35.8361],[136.7686,35.791],[136.6871,35.7745],[136.612,35.7793],[136.4554,35.7519],[136.337,35.7664],[136.3043,35.7442],[136.2573,35.6456]]},"properties":null},
{"type":"Feature","geometry":{"type":"LineString","coordinates":[[136.2573,35.6456],[136.1673,35.675],[136.1244,35.6493],[136.1463,35.5821],[136.0958,35.5585],[136.0886,35.5226],[135.9795,35.4804],[135.931,35.5026],[135.901,35.4138],[135.8669,35.3798],[135.7992,35.3769],[135.7429,35.3376]]},"properties":null},
{"type":"Feature","geometry":{"type":"LineString","coordinates":[[137.0444,36.9564],[136.9149,36.9373],[136.8598,36.887],[136.8117,36.7526],[136.7771,36.7189],[136.787,36.6647],[136.7692,36.6215],[136.7836,36.5434],[136.7576,36.419],[136.7732,36.3766],[136.7732,36.292]]},"properties":null},
{"type":"Feature","geometry":{"type":"LineString","coordinates":[[136.7732,36.292],[136.8119,36.2201],[136.7543,36.1477],[136.7209,36.0748]]},"properties":null},
{"type":"Feature","geometry":{"type":"LineString","coordinates":[[137.6146,36.9751],[137.6948,36.912],[137.7327,36.7748]]},"properties":null},
{"type":"Feature","geometry":{"type":"LineString","coordinates":[[137.7327,36.7748],[137.7341,36.668],[137.7195,36.5898],[137.6282,36.4345],[137.5654,36.377]]},"properties":null},
{"type":"Feature","geometry":{"type":"LineString","coordinates":[[137.5654,36.377],[137.3576,36.4368],[137.2848,36.4508],[137.1326,36.4252],[137.0415,36.3508],[137.0268,36.3195],[136.958,36.2733],[136.9449,36.3189],[136.8505,36.3428],[136.8145,36.2945],[136.7732,36.292]]},"properties":null},
{"type":"Feature","geometry":{"type":"LineString","coordinates":[[139.5487,38.545],[139.7018,38.4944],[139.6962,38.4155],[139.7216,38.377],[139.8056,38.3544],[139.8622,38.3144],[139.8444,38.2409],[139.7782,38.2086],[139.7015,38.2091],[139.6792,38.1876],[139.6646,38.0719],[139.6174,37.9096],[139.654,37.8589],[139.7246,37.8204]]},"properties":null},
{"type":"Feature","geometry":{"type":"LineString","coordinates":[[139.7246,37.8204],[139.6656,37.7638],[139.5333,37.6137],[139.5561,37.5182],[139.4195,37.5033],[139.3814,37.4608],[139.2088,37.4411],[139.1885,37.4181],[139.2082,37.3546],[139.1601,37.2408],[139.2352,37.1399],[139.2406,37.0395],[139.2146,36.9457]]},"properties":null},
{"type":"Feature","geometry":{"type":"LineString","coordinates":[[139.2146,36.9457],[139.1676,36.9602],[139.1045,37.0356],[139.054,36.9987],[138.974,36.972],[138.9587,36.8944],[138.9171,36.8785],[138.8901,36.8267],[138.8225,36.8036],[138.8081,36.7678],[138.6795,36.7307]]},"properties":null},
{"type":"Feature","geometry":{"type":"LineString","coordinates":[[138.6795,36.7307],[138.6696,36.8226],[138.5745,36.923],[138.5552,37.0006],[138.4814,37.0142],[138.3821,36.9862],[138.2863,36.9077],[138.2707,36.8584],[138.2154,36.8598],[138.1004,36.8355],[138.0442,36.8072],[138.012,36.8258],[138.0055,36.8829],[137.8847,36.9221],[137.8011,36.8034],[137.7327,36.7748]]},"properties":null},
{"type":"Feature","geometry":{"type":"LineString","coordinates":[[139.8809,39.1151],[139.9628,39.0982],[140.0122,39.1098],[140.1262,39.0485],[140.2107,39.02],[140.3428,39.0038],[140.4212,38.9639],[140.4794,38.8922],[140.5329,38.8817]]},"properties":null},
{"type":"Feature","geometry":{"type":"LineString","coordinates":[[140.5329,38.8817],[140.616,38.7654],[140.599,38.6598],[140.5411,38.6421],[140.5549,38.5244],[140.5879,38.4657],[140.5597,38.3948],[140.5225,38.3577],[140.4614,38.2448],[140.4508,38.1521],[140.3965,38.0912],[140.2823,38.0451],[140.2696,37.9642]]},"properties":null},
{"type":"Feature","geometry":{"type":"LineString","coordinates":[[140.2696,37.9642],[140.2737,37.7996],[140.2033,37.7385],[140.1043,37.7227],[140.061,37.7522],[139.9906,37.7565],[139.9324,37.8116],[139.8064,37.806],[139.7246,37.8204]]},"properties":null},
{"type":"Feature","geometry":{"type":"LineString","coordinates":[[139.9438,40.4293],[139.9961,40.4319],[140.0614,40.4641],[140.1219,40.4486],[140.3006,40.4471],[140.3847,40.4801],[140.5442,40.408],[140.7169,40.4255],[140.8499,40.4995],[140.9404,40.4682],[140.9627,40.3686],[140.9263,40.244]]},"properties":null},
{"type":"Feature","geometry":{"type":"LineString","coordinates":[[140.9263,40.244],[140.8554,40.1806],[140.8416,40.0772],[140.8425,39.9775],[140.8706,39.8783],[140.7944,39.8605],[140.7828,39.8291],[140.8265,39.7843],[140.7902,39.7198],[140.8138,39.6439],[140.7481,39.5601],[140.6581,39.3923],[140.6934,39.3026],[140.7605,39.2409],[140.7961,39.1747],[140.7639,39.1481],[140.7585,39.0864],[140.7947,39.0602],[140.7594,38.9517]]},"properties":null},
{"type":"Feature","geometry":{"type":"LineString","coordinates":[[140.7594,38.9517],[140.642,38.8893],[140.5776,38.872],[140.5329,38.8817]]},"properties":null},
{"type":"Feature","geometry":{"type":"LineString","coordinates":[[141.681,40.451],[141.5878,40.4071],[141.5369,40.3564],[141.4736,40.3685],[141.3569,40.3401],[141.3025,40.3554],[141.0876,40.2627],[141.0015,40.2113],[140.9263,40.244]]},"properties":null},
{"type":"Feature","geometry":{"type":"LineString","coordinates":[[141.6403,38.9675],[141.54,38.9902],[141.4824,38.9636],[141.4813,38.9114],[141.4507,38.8728],[141.4489,38.8163],[141.4067,38.7854],[141.3207,38.813],[141.2178,38.7538],[141.1461,38.7862],[141.1135,38.8224],[141.1126,38.8695],[141.0053,38.8729],[140.8161,38.9466],[140.7594,38.9517]]},"properties":null},
{"type":"Feature","geometry":{"type":"LineString","coordinates":[[140.9332,37.8898],[140.8549,37.876],[140.8496,37.7988],[140.7641,37.7702],[140.6947,37.7985],[140.6516,37.8829],[140.5749,37.9033],[140.5174,37.8932],[140.4046,37.9546],[140.3206,37.9459],[140.2696,37.9642]]},"properties":null},
{"type":"Feature","geometry":{"type":"LineString","coordinates":[[140.7973,36.8465],[140.6982,36.8686],[140.5615,36.9179],[140.5698,36.8714],[140.4812,36.7971],[140.4069,36.8158],[140.286,36.9059],[140.2373,36.9248]]},"properties":null},
{"type":"Feature","geometry":{"type":"LineString","coordinates":[[140.2373,36.9248],[140.2313,37],[140.185,37.0529],[140.0981,37.1058],[139.9582,37.1394],[139.8613,37.1304],[139.7912,37.0812],[139.6785,37.0532],[139.5096,36.9749],[139.4459,36.9561],[139.3596,36.902]]},"properties":null},
{"type":"Feature","geometry":{"type":"LineString","coordinates":[[139.3596,36.902],[139.2174,36.9295],[139.2146,36.9457]]},"properties":null},
{"type":"Feature","geometry":{"type":"LineString","coordinates":[[140.8595,35.7354],[140.799,35.7438],[140.7109,35.8197],[140.5515,35.8886],[140.4614,35.8924],[140.3678,35.8784],[140.3456,35.8554],[140.1897,35.8429],[140.1273,35.8544],[139.9696,35.9139],[139.9324,35.9385],[139.8055,36.0778],[139.7528,36.0796]]},"properties":null},
{"type":"Feature","geometry":{"type":"LineString","coordinates":[[139.7528,36.0796],[139.7109,36.0983],[139.674,36.1522]]},"properties":null},
{"type":"Feature","geometry":{"type":"LineString","coordinates":[[139.674,36.1522],[139.6537,36.2031]]},"properties":null},
{"type":"Feature","geometry":{"type":"LineString","coordinates":[[139.6537,36.2031],[139.7036,36.2047],[139.7918,36.2416],[139.8404,36.3],[139.8949,36.3093],[139.9535,36.3621],[140.0142,36.3649],[140.1811,36.4149],[140.23,36.4996],[140.2376,36.5413],[140.221,36.6772],[140.2668,36.7186],[140.2506,36.7613],[140.2373,36.9248]]},"properties":null},
{"type":"Feature","geometry":{"type":"LineString","coordinates":[[139.8642,35.6321],[139.886,35.6977],[139.8639,35.7781]]},"properties":null},
{"type":"Feature","geometry":{"type":"LineString","coordinates":[[139.8639,35.7781],[139.8748,35.8504],[139.7965,36.0189],[139.7528,36.0796]]},"properties":null},
{"type":"Feature","geometry":{"type":"LineString","coordinates":[[139.7866,35.5115],[139.6978,35.5381],[139.5394,35.6126],[139.4799,35.5907],[139.4748,35.5081],[139.3991,35.5563],[139.2453,35.5917],[139.2038,35.6237],[139.1218,35.654]]},"properties":null},
{"type":"Feature","geometry":{"type":"LineString","coordinates":[[139.1218,35.654],[139.0358,35.6963],[138.9709,35.7616],[138.9228,35.8354]]},"properties":null},
{"type":"Feature","geometry":{"type":"LineString","coordinates":[[138.9228,35.8354],[139.0136,35.8773],[139.0602,35.8531],[139.2715,35.809],[139.3845,35.7549],[139.4343,35.7522],[139.5074,35.7777],[139.5356,35.7516],[139.6413,35.7771],[139.7061,35.7756],[139.7578,35.7953],[139.8639,35.7781]]},"properties":null},
{"type":"Feature","geometry":{"type":"LineString","coordinates":[[139.0944,35.1175],[139.0124,35.1468],[138.9736,35.205],[138.9706,35.2498],[139.0003,35.2906],[138.9866,35.3811],[138.9003,35.3809]]},"properties":null},
{"type":"Feature","geometry":{"type":"LineString","coordinates":[[138.9003,35.3809],[138.9333,35.4371],[139.0805,35.5049],[139.1063,35.5393],[139.1218,35.654]]},"properties":null},
{"type":"Feature","geometry":{"type":"LineString","coordinates":[[137.4679,34.671],[137.4633,34.7252],[137.4884,34.8098],[137.5792,34.845],[137.6704,34.9472],[137.6849,35.0025],[137.7702,35.0812],[137.8056,35.1945]]},"properties":null},
{"type":"Feature","geometry":{"type":"LineString","coordinates":[[137.8056,35.1945],[137.9398,35.2731],[138.0855,35.337],[138.1268,35.3845],[138.1133,35.434],[138.1404,35.4699],[138.1432,35.561],[138.1961,35.6279]]},"properties":null},
{"type":"Feature","geometry":{"type":"LineString","coordinates":[[138.1961,35.6279],[138.2413,35.5178],[138.2359,35.3037],[138.3282,35.2999],[138.3526,35.2784],[138.3835,35.1903],[138.4304,35.1593],[138.4724,35.1617],[138.5105,35.2075],[138.5057,35.2942],[138.534,35.4097],[138.6972,35.3508],[138.9003,35.3809]]},"properties":null},
{"type":"Feature","geometry":{"type":"LineString","coordinates":[[136.7518,35.0262],[136.6734,35.1388]]},"properties":null},
{"type":"Feature","geometry":{"type":"LineString","coordinates":[[136.6734,35.1388],[136.6801,35.2364],[136.7706,35.3521],[136.8059,35.3421],[136.9529,35.3841],[137.0207,35.3477],[137.0708,35.2849],[137.1996,35.2412],[137.2932,35.2678],[137.422,35.216],[137.5479,35.2704]]},"properties":null},
{"type":"Feature","geometry":{"type":"LineString","coordinates":[[137.5479,35.2704],[137.5387,35.2372],[137.5751,35.1882],[137.6821,35.2087],[137.8056,35.1945]]},"properties":null},
{"type":"Feature","geometry":{"type":"LineString","coordinates":[[135.9937,33.6863],[135.9508,33.7039],[135.8632,33.7871],[135.8477,33.8381]]},"properties":null},
{"type":"Feature","geometry":{"type":"LineString","coordinates":[[135.8477,33.8381],[135.8914,33.8827],[135.9575,33.918],[136.0038,33.9931],[136.0872,34.0094],[136.1094,34.1262],[136.1187,34.2411],[136.1077,34.3007],[136.0692,34.377],[136.0956,34.42],[136.2027,34.4588],[136.2025,34.5015],[136.0525,34.5746],[136.0723,34.6563],[136.0365,34.7153]]},"properties":null},
{"type":"Feature","geometry":{"type":"LineString","coordinates":[[136.0031,34.7737],[136.082,34.8009],[136.1246,34.8723],[136.2405,34.8631],[136.3625,34.9058],[136.3999,34.9495],[136.4432,35.1318],[136.3988,35.2026]]},"properties":null},
{"type":"Feature","geometry":{"type":"LineString","coordinates":[[136.3988,35.2026],[136.5152,35.2319],[136.618,35.158],[136.6734,35.1388]]},"properties":null},
{"type":"Feature","geometry":{"type":"LineString","coordinates":[[135.0853,34.2992],[135.1206,34.2757],[135.1885,34.2743],[135.3126,34.2973],[135.4569,34.3346],[135.5252,34.3346],[135.6011,34.3685],[135.6468,34.3718]]},"properties":null},
{"type":"Feature","geometry":{"type":"LineString","coordinates":[[135.6468,34.3718],[135.6628,34.2849],[135.7091,34.2254],[135.6329,34.1846],[135.5511,34.0825],[135.6133,33.9549],[135.5983,33.8901],[135.6374,33.8591],[135.6822,33.8799],[135.8173,33.8722],[135.8477,33.8381]]},"properties":null},
{"type":"Feature","geometry":{"type":"LineString","coordinates":[[135.7063,34.7595],[135.622,34.5534],[135.6651,34.4931],[135.6707,34.3885],[135.6468,34.3718]]},"properties":null},
{"type":"Feature","geometry":{"type":"LineString","coordinates":[[133.443,34.4727],[133.4491,34.5088],[133.3927,34.6082],[133.3715,34.6894],[133.3622,34.7927],[133.3101,34.8769],[133.3041,34.9974],[133.2643,35.0506]]},"properties":null},
{"type":"Feature","geometry":{"type":"LineString","coordinates":[[139.3596,36.902],[139.3392,36.8487],[139.3666,36.8083],[139.3326,36.7691],[139.312,36.6322],[139.4459,36.5859],[139.3384,36.3686],[139.4405,36.2685],[139.5028,36.2744],[139.5887,36.2601],[139.6537,36.2031]]},"properties":null},
{"type":"Feature","geometry":{"type":"LineString","coordinates":[[139.674,36.1522],[139.61,36.1794],[139.5142,36.1928],[139.4731,36.1781],[139.3786,36.2225],[139.3043,36.2282],[139.1119,36.2709],[139.0444,36.1867],[139.0182,36.1289],[138.7507,36.0272],[138.7009,35.9695]]},"properties":null},
{"type":"Feature","geometry":{"type":"LineString","coordinates":[[138.7009,35.9695],[138.6145,36.031],[138.6133,36.1164],[138.5681,36.1655],[138.6047,36.1864],[138.587,36.2702],[138.6299,36.3107],[138.6237,36.384],[138.5838,36.4169],[138.4384,36.4003],[138.3768,36.4678],[138.4047,36.5704],[138.4365,36.6254],[138.4843,36.6385],[138.4992,36.6821],[138.6795,36.7307]]},"properties":null},
{"type":"Feature","geometry":{"type":"LineString","coordinates":[[138.7009,35.9695],[138.7157,35.8965]]},"properties":null},
{"type":"Feature","geometry":{"type":"LineString","coordinates":[[138.7157,35.8965],[138.623,35.854],[138.5853,35.892],[138.4663,35.8882],[138.4282,35.9392],[138.3603,35.9578],[138.2872,35.8627],[138.2165,35.8504],[138.1802,35.7867],[138.2027,35.7471],[138.1685,35.6988],[138.1961,35.6279]]},"properties":null},
{"type":"Feature","geometry":{"type":"LineString","coordinates":[[137.5479,35.2704],[137.5784,35.3284],[137.5645,35.3711],[137.6057,35.394],[137.5852,35.4951],[137.5282,35.5392],[137.5108,35.6346],[137.444,35.7334],[137.3232,35.8016],[137.3759,35.8685],[137.4628,35.8894],[137.5773,36.0312],[137.5821,36.0568],[137.5394,36.1179],[137.5629,36.2106],[137.6119,36.2711],[137.6245,36.315],[137.5654,36.377]]},"properties":null},
{"type":"Feature","geometry":{"type":"LineString","coordinates":[[136.3988,35.2026],[136.3762,35.2315],[136.4076,35.3934],[136.3974,35.4528],[136.3594,35.5339],[136.326,35.5329],[136.2573,35.6456]]},"properties":null},
{"type":"Feature","geometry":{"type":"LineString","coordinates":[[138.9228,35.8354],[138.7976,35.856],[138.7157,35.8965]]},"properties":null}
]}
